ALOS (DAICHI)           
1 28931U 06002A   26058.63166266  .00001455  00000+0  25220-3 0  9996
2 28931  98.1200  14.6391 0001357  53.6029 306.5302 14.69770787 72004
H-2A R/B                
1 28932U 06002B   26058.64443081  .00008775  00000+0  44331-3 0  9997
2 28932  98.2384 204.8078 0051914 275.6403  83.8909 15.16168096 92917
RESURS-DK 1             
1 29228U 06021A   26058.55048804  .00002363  00000+0  14091-3 0  9998
2 29228  69.9309 263.2522 0002684 168.4541 191.6687 15.12668006 85996
CZ-4B R/B               
1 29507U 06046C   26058.58203842  .00004907  00000+0  25025-3 0  9998
2 29507  97.5623 103.5182 0031874 304.1778  55.6434 15.16782004 58510
CZ-2C R/B               
1 31114U 07010B   26058.58106223  .00000113  00000+0  71027-4 0  9991
2 31114  98.3976 172.3670 0058215 324.5134  35.2177 14.20242072978286
COSMO-SKYMED 1          
1 31598U 07023A   26058.76853650  .00002718  00000+0  24482-3 0  9999
2 31598  97.8874 249.7218 0001050  81.7147 278.4193 14.96445989 13421
COSMOS 2428             
1 31792U 07029A   26058.69420295  .00000130  00000+0  95650-4 0  9990
2 31792  70.9413 224.3233 0008536 287.7812  72.2377 14.12943232962684
SL-16 R/B               
1 31793U 07029B   26058.65586642 -.00000236  00000+0 -97697-4 0  9998
2 31793  70.9756 193.4746 0002468 279.6769  91.9861 14.14834880963956
KORONAS-FOTON           
1 33504U 09003A   26058.12994196  .00012508  00000+0  28219-3 0  9999
2 33504  82.4297 286.8549 0010281 186.1736 173.9386 15.43027138944115
CZ-2C R/B               
1 37731U 11030B   26058.48933953  .00001807  00000+0  23355-3 0  9997
2 37731  97.8525  15.9584 0053382  25.0839  92.2265 14.81174050788582
H-2A R/B                
1 38341U 12025E   26058.62293453  .00003826  00000+0  34888-3 0  9996
2 38341  98.4702  24.8656 0044434 347.4125  12.5980 14.95061304746710
SHIJIAN-16 (SJ-16)      
1 39358U 13057A   26058.77411764  .00001649  00000+0  16395-3 0  9998
2 39358  74.9715 203.8575 0015956 138.2444 221.9966 14.92290636670027
