CCSDS_OMM_VERS = 2.0
CREATION_DATE  = 
ORIGINATOR     = 

OBJECT_NAME    = ALOS (DAICHI)
OBJECT_ID      = 2006-002A
CENTER_NAME    = EARTH
REF_FRAME      = TEME
TIME_SYSTEM    = UTC
MEAN_ELEMENT_THEORY = SGP/SGP4

EPOCH          = 2026-02-27T15:09:35.653824
MEAN_MOTION    = 14.69770787
ECCENTRICITY   = .0001357
INCLINATION    = 98.1200
RA_OF_ASC_NODE = 14.6391
ARG_OF_PERICENTER = 53.6029
MEAN_ANOMALY   = 306.5302

EPHEMERIS_TYPE = 0
CLASSIFICATION_TYPE = U
NORAD_CAT_ID   = 28931
ELEMENT_SET_NO = 999
REV_AT_EPOCH   = 7200
BSTAR          = .2522E-3
MEAN_MOTION_DOT = .1455E-4
MEAN_MOTION_DDOT = 0

CCSDS_OMM_VERS = 2.0
CREATION_DATE  = 
ORIGINATOR     = 

OBJECT_NAME    = H-2A R/B
OBJECT_ID      = 2006-002B
CENTER_NAME    = EARTH
REF_FRAME      = TEME
TIME_SYSTEM    = UTC
MEAN_ELEMENT_THEORY = SGP/SGP4

EPOCH          = 2026-02-27T15:27:58.821984
MEAN_MOTION    = 15.16168096
ECCENTRICITY   = .0051914
INCLINATION    = 98.2384
RA_OF_ASC_NODE = 204.8078
ARG_OF_PERICENTER = 275.6403
MEAN_ANOMALY   = 83.8909

EPHEMERIS_TYPE = 0
CLASSIFICATION_TYPE = U
NORAD_CAT_ID   = 28932
ELEMENT_SET_NO = 999
REV_AT_EPOCH   = 9291
BSTAR          = .44331E-3
MEAN_MOTION_DOT = .8775E-4
MEAN_MOTION_DDOT = 0

CCSDS_OMM_VERS = 2.0
CREATION_DATE  = 
ORIGINATOR     = 

OBJECT_NAME    = RESURS-DK 1
OBJECT_ID      = 2006-021A
CENTER_NAME    = EARTH
REF_FRAME      = TEME
TIME_SYSTEM    = UTC
MEAN_ELEMENT_THEORY = SGP/SGP4

EPOCH          = 2026-02-27T13:12:42.166656
MEAN_MOTION    = 15.12668006
ECCENTRICITY   = .0002684
INCLINATION    = 69.9309
RA_OF_ASC_NODE = 263.2522
ARG_OF_PERICENTER = 168.4541
MEAN_ANOMALY   = 191.6687

EPHEMERIS_TYPE = 0
CLASSIFICATION_TYPE = U
NORAD_CAT_ID   = 29228
ELEMENT_SET_NO = 999
REV_AT_EPOCH   = 8599
BSTAR          = .14091E-3
MEAN_MOTION_DOT = .2363E-4
MEAN_MOTION_DDOT = 0

CCSDS_OMM_VERS = 2.0
CREATION_DATE  = 
ORIGINATOR     = 

OBJECT_NAME    = CZ-4B R/B
OBJECT_ID      = 2006-046C
CENTER_NAME    = EARTH
REF_FRAME      = TEME
TIME_SYSTEM    = UTC
MEAN_ELEMENT_THEORY = SGP/SGP4

EPOCH          = 2026-02-27T13:58:08.119488
MEAN_MOTION    = 15.16782004
ECCENTRICITY   = .0031874
INCLINATION    = 97.5623
RA_OF_ASC_NODE = 103.5182
ARG_OF_PERICENTER = 304.1778
MEAN_ANOMALY   = 55.6434

EPHEMERIS_TYPE = 0
CLASSIFICATION_TYPE = U
NORAD_CAT_ID   = 29507
ELEMENT_SET_NO = 999
REV_AT_EPOCH   = 5851
BSTAR          = .25025E-3
MEAN_MOTION_DOT = .4907E-4
MEAN_MOTION_DDOT = 0

CCSDS_OMM_VERS = 2.0
CREATION_DATE  = 
ORIGINATOR     = 

OBJECT_NAME    = CZ-2C R/B
OBJECT_ID      = 2007-010B
CENTER_NAME    = EARTH
REF_FRAME      = TEME
TIME_SYSTEM    = UTC
MEAN_ELEMENT_THEORY = SGP/SGP4

EPOCH          = 2026-02-27T13:56:43.776672
MEAN_MOTION    = 14.20242072
ECCENTRICITY   = .0058215
INCLINATION    = 98.3976
RA_OF_ASC_NODE = 172.3670
ARG_OF_PERICENTER = 324.5134
MEAN_ANOMALY   = 35.2177

EPHEMERIS_TYPE = 0
CLASSIFICATION_TYPE = U
NORAD_CAT_ID   = 31114
ELEMENT_SET_NO = 999
REV_AT_EPOCH   = 97828
BSTAR          = .71027E-4
MEAN_MOTION_DOT = .113E-5
MEAN_MOTION_DDOT = 0

CCSDS_OMM_VERS = 2.0
CREATION_DATE  = 
ORIGINATOR     = 

OBJECT_NAME    = COSMO-SKYMED 1
OBJECT_ID      = 2007-023A
CENTER_NAME    = EARTH
REF_FRAME      = TEME
TIME_SYSTEM    = UTC
MEAN_ELEMENT_THEORY = SGP/SGP4

EPOCH          = 2026-02-27T18:26:41.553600
MEAN_MOTION    = 14.96445989
ECCENTRICITY   = .000105
INCLINATION    = 97.8874
RA_OF_ASC_NODE = 249.7218
ARG_OF_PERICENTER = 81.7147
MEAN_ANOMALY   = 278.4193

EPHEMERIS_TYPE = 0
CLASSIFICATION_TYPE = U
NORAD_CAT_ID   = 31598
ELEMENT_SET_NO = 999
REV_AT_EPOCH   = 1342
BSTAR          = .24482E-3
MEAN_MOTION_DOT = .2718E-4
MEAN_MOTION_DDOT = 0

CCSDS_OMM_VERS = 2.0
CREATION_DATE  = 
ORIGINATOR     = 

OBJECT_NAME    = COSMOS 2428
OBJECT_ID      = 2007-029A
CENTER_NAME    = EARTH
REF_FRAME      = TEME
TIME_SYSTEM    = UTC
MEAN_ELEMENT_THEORY = SGP/SGP4

EPOCH          = 2026-02-27T16:39:39.134880
MEAN_MOTION    = 14.12943232
ECCENTRICITY   = .0008536
INCLINATION    = 70.9413
RA_OF_ASC_NODE = 224.3233
ARG_OF_PERICENTER = 287.7812
MEAN_ANOMALY   = 72.2377

EPHEMERIS_TYPE = 0
CLASSIFICATION_TYPE = U
NORAD_CAT_ID   = 31792
ELEMENT_SET_NO = 999
REV_AT_EPOCH   = 96268
BSTAR          = .9565E-4
MEAN_MOTION_DOT = .13E-5
MEAN_MOTION_DDOT = 0

CCSDS_OMM_VERS = 2.0
CREATION_DATE  = 
ORIGINATOR     = 

OBJECT_NAME    = SL-16 R/B
OBJECT_ID      = 2007-029B
CENTER_NAME    = EARTH
REF_FRAME      = TEME
TIME_SYSTEM    = UTC
MEAN_ELEMENT_THEORY = SGP/SGP4

EPOCH          = 2026-02-27T15:44:26.858688
MEAN_MOTION    = 14.14834880
ECCENTRICITY   = .0002468
INCLINATION    = 70.9756
RA_OF_ASC_NODE = 193.4746
ARG_OF_PERICENTER = 279.6769
MEAN_ANOMALY   = 91.9861

EPHEMERIS_TYPE = 0
CLASSIFICATION_TYPE = U
NORAD_CAT_ID   = 31793
ELEMENT_SET_NO = 999
REV_AT_EPOCH   = 96395
BSTAR          = -.97697E-4
MEAN_MOTION_DOT = -.236E-5
MEAN_MOTION_DDOT = 0

CCSDS_OMM_VERS = 2.0
CREATION_DATE  = 
ORIGINATOR     = 

OBJECT_NAME    = KORONAS-FOTON
OBJECT_ID      = 2009-003A
CENTER_NAME    = EARTH
REF_FRAME      = TEME
TIME_SYSTEM    = UTC
MEAN_ELEMENT_THEORY = SGP/SGP4

EPOCH          = 2026-02-27T03:07:06.985344
MEAN_MOTION    = 15.43027138
ECCENTRICITY   = .00102819
INCLINATION    = 82.4297
RA_OF_ASC_NODE = 286.8549
ARG_OF_PERICENTER = 186.1736
MEAN_ANOMALY   = 173.9386

EPHEMERIS_TYPE = 0
CLASSIFICATION_TYPE = U
NORAD_CAT_ID   = 33504
ELEMENT_SET_NO = 999
REV_AT_EPOCH   = 94411
BSTAR          = .28218907E-3
MEAN_MOTION_DOT = .12508E-3
MEAN_MOTION_DDOT = 0

CCSDS_OMM_VERS = 2.0
CREATION_DATE  = 
ORIGINATOR     = 

OBJECT_NAME    = CZ-2C R/B
OBJECT_ID      = 2011-030B
CENTER_NAME    = EARTH
REF_FRAME      = TEME
TIME_SYSTEM    = UTC
MEAN_ELEMENT_THEORY = SGP/SGP4

EPOCH          = 2026-02-27T11:44:38.935392
MEAN_MOTION    = 14.81174050
ECCENTRICITY   = .0053382
INCLINATION    = 97.8525
RA_OF_ASC_NODE = 15.9584
ARG_OF_PERICENTER = 25.0839
MEAN_ANOMALY   = 92.2265

EPHEMERIS_TYPE = 0
CLASSIFICATION_TYPE = U
NORAD_CAT_ID   = 37731
ELEMENT_SET_NO = 999
REV_AT_EPOCH   = 78858
BSTAR          = .23355E-3
MEAN_MOTION_DOT = .1807E-4
MEAN_MOTION_DDOT = 0

CCSDS_OMM_VERS = 2.0
CREATION_DATE  = 
ORIGINATOR     = 

OBJECT_NAME    = H-2A R/B
OBJECT_ID      = 2012-025E
CENTER_NAME    = EARTH
REF_FRAME      = TEME
TIME_SYSTEM    = UTC
MEAN_ELEMENT_THEORY = SGP/SGP4

EPOCH          = 2026-02-27T14:57:01.543392
MEAN_MOTION    = 14.95061304
ECCENTRICITY   = .0044434
INCLINATION    = 98.4702
RA_OF_ASC_NODE = 24.8656
ARG_OF_PERICENTER = 347.4125
MEAN_ANOMALY   = 12.5980

EPHEMERIS_TYPE = 0
CLASSIFICATION_TYPE = U
NORAD_CAT_ID   = 38341
ELEMENT_SET_NO = 999
REV_AT_EPOCH   = 74671
BSTAR          = .34888E-3
MEAN_MOTION_DOT = .3826E-4
MEAN_MOTION_DDOT = 0

CCSDS_OMM_VERS = 2.0
CREATION_DATE  = 
ORIGINATOR     = 

OBJECT_NAME    = SHIJIAN-16 (SJ-16)
OBJECT_ID      = 2013-057A
CENTER_NAME    = EARTH
REF_FRAME      = TEME
TIME_SYSTEM    = UTC
MEAN_ELEMENT_THEORY = SGP/SGP4

EPOCH          = 2026-02-27T18:34:43.764096
MEAN_MOTION    = 14.92290636
ECCENTRICITY   = .0015956
INCLINATION    = 74.9715
RA_OF_ASC_NODE = 203.8575
ARG_OF_PERICENTER = 138.2444
MEAN_ANOMALY   = 221.9966

EPHEMERIS_TYPE = 0
CLASSIFICATION_TYPE = U
NORAD_CAT_ID   = 39358
ELEMENT_SET_NO = 999
REV_AT_EPOCH   = 67002
BSTAR          = .16395E-3
MEAN_MOTION_DOT = .1649E-4
MEAN_MOTION_DDOT = 0

